*******************************************************************************
Revised: April 12, 2021         Earth Barycenter                              3
 
 Dynamical point:
 ---------------
 The common point about which the Earth and Moon revolve (center of mass). This
 is approximately 4671 km from the center of the Earth, or about 3/4 of the way 
 to the surface. See 399 for Earth center, or 301 for Moon center ephemeris.
*******************************************************************************


*******************************************************************************
Ephemeris / WWW_USER Mon May 25 11:53:36 2026 Pasadena, USA      / Horizons
*******************************************************************************
Target body name: Earth-Moon Barycenter (3)       {source: DE441}
Center body name: Solar System Barycenter (0)     {source: DE441}
Center-site name: BODY CENTER
*******************************************************************************
Start time      : A.D. 1800-Jan-01 00:00:00.0000 TDB
Stop  time      : A.D. 2000-Jan-01 00:00:00.0000 TDB
Step-size       : 14400 minutes
*******************************************************************************
Center geodetic : 0.0, 0.0, 0.0                   {E-lon(deg),Lat(deg),Alt(km)}
Center cylindric: 0.0, 0.0, 0.0                   {E-lon(deg),Dxy(km),Dz(km)}
Center radii    : (undefined)
Output units    : KM-S
Calendar mode   : Mixed Julian/Gregorian
Output type     : GEOMETRIC cartesian states
Output format   : 3 (position, velocity, LT, range, range-rate)
Reference frame : Ecliptic of J2000.0
*******************************************************************************
JDTDB
   X     Y     Z
   VX    VY    VZ
   LT    RG    RR
*******************************************************************************
$$SOE
2381466.500000000 = A.D. 1808-Feb-19 00:00:00.0000 TDB 
 X =-1.306488832402527E+08 Y = 7.063826241250356E+07 Z = 1.362366712361947E+04
 VX=-1.452386109884548E+01 VY=-2.639711813019889E+01 VZ=-1.176000920698250E-02
 LT= 4.954173064373438E+02 RG= 1.485223720325905E+08 RR= 2.213775259676174E-01
2381476.500000000 = A.D. 1808-Feb-29 00:00:00.0000 TDB 
 X =-1.411467535718156E+08 Y = 4.688632493937992E+07 Z = 3.123634798560292E+03
 VX=-9.720743496121155E+00 VY=-2.844206458962119E+01 VZ=-1.248177938665940E-02
 LT= 4.961112313877762E+02 RG= 1.487304054991482E+08 RR= 2.589078229718883E-01
2381486.500000000 = A.D. 1808-Mar-10 00:00:00.0000 TDB 
 X =-1.473721904373973E+08 Y = 2.174222815254851E+07 Z =-7.832561342945322E+03
 VX=-4.660328851680839E+00 VY=-2.961351673673510E+01 VZ=-1.281415861099866E-02
 LT= 4.969017688838823E+02 RG= 1.489674026782470E+08 RR= 2.882451686549466E-01
2381496.500000000 = A.D. 1808-Mar-20 00:00:00.0000 TDB 
 X =-1.491715019499334E+08 Y =-4.027554294306015E+06 Z =-1.890580128506431E+04
 VX= 4.984151063365695E-01 VY=-2.988913564586214E+01 VZ=-1.275307185167485E-02
 LT= 4.977639037067742E+02 RG= 1.492258641959292E+08 RR= 3.084654793047809E-01
2381506.500000000 = A.D. 1808-Mar-30 00:00:00.0000 TDB 
 X =-1.465279098138541E+08 Y =-2.964980384005379E+07 Z =-2.975889596421085E+04
 VX= 5.598434077286390E+00 VY=-2.927539375590144E+01 VZ=-1.230700314214950E-02
 LT= 4.986704027077861E+02 RG= 1.494976257596171E+08 RR= 3.189562685556177E-01
2381516.500000000 = A.D. 1808-Apr-09 00:00:00.0000 TDB 
 X =-1.395576528203474E+08 Y =-5.436865519401762E+07 Z =-4.006704151535779E+04
 VX= 1.048964654594680E+01 VY=-2.780558156812878E+01 VZ=-1.149582781087410E-02
 LT= 4.995927295533893E+02 RG= 1.497741323917398E+08 RR= 3.194282331611345E-01
2381526.500000000 = A.D. 1808-Apr-19 00:00:00.0000 TDB 
 X =-1.285020770823423E+08 Y =-7.746761284496446E+07 Z =-4.952707801775634E+04
 VX= 1.503316288000049E+01 VY=-2.553703268901034E+01 VZ=-1.034949975869637E-02
 LT= 5.005019742115413E+02 RG= 1.500467170827306E+08 RR= 3.099089393543210E-01
2381536.500000000 = A.D. 1808-Apr-29 00:00:00.0000 TDB 
 X =-1.137164710426376E+08 Y =-9.828894385358894E+07 Z =-5.786548670171201E+04
 VX= 1.910459552535805E+01 VY=-2.254786732183177E+01 VZ=-8.906504114031932E-03
 LT= 5.013697559234463E+02 RG= 1.503068714951500E+08 RR= 2.907345240940559E-01
2381546.500000000 = A.D. 1808-May-09 00:00:00.0000 TDB 
 X =-9.565641893690050E+07 Y =-1.162501397469589E+08 Z =-6.484507992691547E+04
 VX= 2.259650259585313E+01 VY=-1.893350836945476E+01 VZ=-7.212195573533364E-03
 LT= 5.021690818515019E+02 RG= 1.505465033798650E+08 RR= 2.625297952441866E-01
2381556.500000000 = A.D. 1808-May-19 00:00:00.0000 TDB 
 X =-7.486238993450518E+07 Y =-1.308573446267154E+08 Z =-7.027036471192539E+04
 VX= 2.542005335216882E+01 VY=-1.480317040645730E+01 VZ=-5.317377969274339E-03
 LT= 5.028751388143492E+02 RG= 1.507581739322450E+08 RR= 2.261767836827445E-01
2381566.500000000 = A.D. 1808-May-29 00:00:00.0000 TDB 
 X =-5.194317936620239E+07 Y =-1.417157992406333E+08 Z =-7.399149432852119E+04
 VX= 2.750603834038771E+01 VY=-1.027647977838047E+01 VZ=-3.276712226444545E-03
 LT= 5.034659934787315E+02 RG= 1.509353077044009E+08 RR= 1.827849618053619E-01
2381576.500000000 = A.D. 1808-Jun-08 00:00:00.0000 TDB 
 X =-2.755870541891212E+07 Y =-1.485374493198877E+08 Z =-7.590693246635050E+04
 VX= 2.880537430252364E+01 VY=-5.480304790750642E+00 VZ=-1.147211283925031E-03
 LT= 5.039231937919384E+02 RG= 1.510723729100956E+08 RR= 1.336561869072979E-01
2381586.500000000 = A.D. 1808-Jun-18 00:00:00.0000 TDB 
 X =-2.402543129951106E+06 Y =-1.511459176849131E+08 Z =-7.596501887118071E+04
 VX= 2.928923343302185E+01 VY=-5.458209433107123E-01 VZ= 1.012987292571432E-03
 LT= 5.042322659225367E+02 RG= 1.511650304038269E+08 RR= 8.024265809558416E-02
2381596.500000000 = A.D. 1808-Jun-28 00:00:00.0000 TDB 
 X = 2.281553546863953E+07 Y =-1.494790453450108E+08 Z =-7.416441046609730E+04
 VX= 2.894891224218485E+01 VY= 4.394188117765247E+00 VZ= 3.145732558596182E-03
 LT= 5.043830962070178E+02 RG= 1.512102481855523E+08 RR= 2.410984620756754E-02
2381606.500000000 = A.D. 1808-Jul-08 00:00:00.0000 TDB 
 X = 4.738683001168780E+07 Y =-1.435891818402111E+08 Z =-7.055356233034283E+04
 VX= 2.779553260039243E+01 VY= 9.207845798805852E+00 VZ= 5.193980787954633E-03
 LT= 5.043701980188593E+02 RG= 1.512063814060206E+08 RR=-3.310199443660747E-02
2381616.500000000 = A.D. 1808-Jul-18 00:00:00.0000 TDB 
 X = 7.062066489259930E+07 Y =-1.336413592625176E+08 Z =-6.522936379480362E+04
 VX= 2.585961934210918E+01 VY= 1.376658229588498E+01 VZ= 7.102881545312023E-03
 LT= 5.041928657337009E+02 RG= 1.511532185243702E+08 RR=-8.972168810527059E-02
2381626.500000000 = A.D. 1808-Jul-28 00:00:00.0000 TDB 
 X = 9.186093499375913E+07 Y =-1.199094222344802E+08 Z =-5.833483740190417E+04
 VX= 2.319057463760608E+01 VY= 1.794747901988271E+01 VZ= 8.820740424068774E-03
 LT= 5.038552107725214E+02 RG= 1.510519921136023E+08 RR=-1.440860516863033E-01
2381636.500000000 = A.D. 1808-Aug-07 00:00:00.0000 TDB 
 X = 1.105021474867182E+08 Y =-1.027701258317221E+08 Z =-5.005586196123064E+04
 VX= 1.985603316959131E+01 VY= 2.163563320560182E+01 VZ= 1.030015386420224E-02
 LT= 5.033660787018443E+02 RG= 1.509053540078473E+08 RR=-1.945786281571621E-01
2381646.500000000 = A.D. 1808-Aug-17 00:00:00.0000 TDB 
 X = 1.260048317775963E+08 Y =-8.269516296077520E+07 Z =-4.061703503854200E+04
 VX= 1.594103497466227E+01 VY= 2.472659861919847E+01 VZ= 1.149899604320481E-02
 LT= 5.027388504918004E+02 RG= 1.507173157210313E+08 RR=-2.396747767136765E-01
2381656.500000000 = A.D. 1808-Aug-27 00:00:00.0000 TDB 
 X = 1.379101333739772E+08 Y =-6.024104205646945E+07 Z =-3.027682109548897E+04
 VX= 1.154694342568939E+01 VY= 2.712892255400671E+01 VZ= 1.238128488425971E-02
 LT= 5.019911225003389E+02 RG= 1.504931525085557E+08 RR=-2.779822921683881E-01
2381666.500000000 = A.D. 1808-Sep-06 00:00:00.0000 TDB 
 X = 1.458533263521109E+08 Y =-3.603672739997317E+07 Z =-1.932168147293478E+04
 VX= 6.790009714189480E+00 VY= 2.876677892659008E+01 VZ= 1.291837290926878E-02
 LT= 5.011442688553788E+02 RG= 1.502392721727668E+08 RR=-3.082770337609507E-01
2381676.500000000 = A.D. 1808-Sep-16 00:00:00.0000 TDB 
 X = 1.495758878243169E+08 Y =-1.076898153791814E+07 Z =-8.059194473606069E+03
 VX= 1.799461548891147E+00 VY= 2.958264765176591E+01 VZ= 1.309011646077707E-02
 LT= 5.002229006670780E+02 RG= 1.499630529388731E+08 RR=-3.295413913681035E-01
2381686.500000000 = A.D. 1808-Sep-26 00:00:00.0000 TDB 
 X = 1.489356822940281E+08 Y = 1.483459227536278E+07 Z = 3.189683376789093E+03
 VX=-3.284982528165487E+00 VY= 2.953993718173372E+01 VZ= 1.288591913257342E-02
 LT= 4.992542256403146E+02 RG= 1.496726514715965E+08 RR=-3.409984965297601E-01
2381696.500000000 = A.D. 1808-Oct-06 00:00:00.0000 TDB 
 X = 1.439147171689869E+08 Y = 4.002470205387253E+07 Z = 1.409921711697616E+04
 VX=-8.316255065340119E+00 VY= 2.862540940986713E+01 VZ= 1.230548687433242E-02
 LT= 4.982673089746738E+02 RG= 1.493767812985629E+08 RR=-3.421404510895537E-01
2381706.500000000 = A.D. 1808-Oct-16 00:00:00.0000 TDB 
 X = 1.346238795831974E+08 Y = 6.405145508785671E+07 Z = 2.434816962529719E+04
 VX=-1.314378878121409E+01 VY= 2.685120527308038E+01 VZ= 1.135954333757461E-02
 LT= 4.972922550523609E+02 RG= 1.490844674865102E+08 RR=-3.327562810392563E-01
2381716.500000000 = A.D. 1808-Oct-26 00:00:00.0000 TDB 
 X = 1.213040524764016E+08 Y = 8.618694114734888E+07 Z = 3.362957507458329E+04
 VX=-1.761804425092764E+01 VY= 2.425623646154033E+01 VZ= 1.007044745843544E-02
 LT= 4.963593242013768E+02 RG= 1.488047818535496E+08 RR=-3.129536613957842E-01
2381726.500000000 = A.D. 1808-Nov-05 00:00:00.0000 TDB 
 X = 1.043230563332189E+08 Y = 1.057486603631641E+08 Z = 4.166073634662479E+04
 VX=-2.159561360049570E+01 VY= 2.090670720591409E+01 VZ= 8.472064146294755E-03
 LT= 4.954979944155728E+02 RG= 1.485465616799148E+08 RR=-2.831690019377505E-01
